<?xml version="1.0" encoding="UTF-8"?>
<ndm xmlns:xsi="http://www.w3.org/2001/XMLSchema-instance" xsi:noNamespaceSchemaLocation="https://sanaregistry.org/r/ndmxml_unqualified/ndmxml-2.0.0-master-2.0.xsd">
<omm id="CCSDS_OMM_VERS" version="2.0">
<header><CREATION_DATE/><ORIGINATOR/></header><body><segment><metadata><OBJECT_NAME>STARLINK-4503</OBJECT_NAME><OBJECT_ID>2022-101B</OBJECT_ID><CENTER_NAME>EARTH</CENTER_NAME><REF_FRAME>TEME</REF_FRAME><TIME_SYSTEM>UTC</TIME_SYSTEM><MEAN_ELEMENT_THEORY>SGP4</MEAN_ELEMENT_THEORY></metadata><data><meanElements><EPOCH>2022-08-29T14:00:01.000224</EPOCH><MEAN_MOTION>15.76543204</MEAN_MOTION><ECCENTRICITY>.0003285</ECCENTRICITY><INCLINATION>53.2176</INCLINATION><RA_OF_ASC_NODE>106.3010</RA_OF_ASC_NODE><ARG_OF_PERICENTER>353.4003</ARG_OF_PERICENTER><MEAN_ANOMALY>171.5076</MEAN_ANOMALY></meanElements><tleParameters><EPHEMERIS_TYPE>0</EPHEMERIS_TYPE><CLASSIFICATION_TYPE>U</CLASSIFICATION_TYPE><NORAD_CAT_ID>53528</NORAD_CAT_ID><ELEMENT_SET_NO>999</ELEMENT_SET_NO><REV_AT_EPOCH>130</REV_AT_EPOCH><BSTAR>-.83115E-2</BSTAR><MEAN_MOTION_DOT>-.1198762E-1</MEAN_MOTION_DOT><MEAN_MOTION_DDOT>0</MEAN_MOTION_DDOT></tleParameters></data></segment></body></omm>
<omm id="CCSDS_OMM_VERS" version="2.0">
<header><CREATION_DATE/><ORIGINATOR/></header><body><segment><metadata><OBJECT_NAME>STARLINK-4478</OBJECT_NAME><OBJECT_ID>2022-101C</OBJECT_ID><CENTER_NAME>EARTH</CENTER_NAME><REF_FRAME>TEME</REF_FRAME><TIME_SYSTEM>UTC</TIME_SYSTEM><MEAN_ELEMENT_THEORY>SGP4</MEAN_ELEMENT_THEORY></metadata><data><meanElements><EPOCH>2022-08-29T14:00:01.000224</EPOCH><MEAN_MOTION>15.76572754</MEAN_MOTION><ECCENTRICITY>.0003187</ECCENTRICITY><INCLINATION>53.2176</INCLINATION><RA_OF_ASC_NODE>106.2981</RA_OF_ASC_NODE><ARG_OF_PERICENTER>359.8646</ARG_OF_PERICENTER><MEAN_ANOMALY>166.0963</MEAN_ANOMALY></meanElements><tleParameters><EPHEMERIS_TYPE>0</EPHEMERIS_TYPE><CLASSIFICATION_TYPE>U</CLASSIFICATION_TYPE><NORAD_CAT_ID>53529</NORAD_CAT_ID><ELEMENT_SET_NO>999</ELEMENT_SET_NO><REV_AT_EPOCH>130</REV_AT_EPOCH><BSTAR>-.82923E-2</BSTAR><MEAN_MOTION_DOT>-.1197644E-1</MEAN_MOTION_DOT><MEAN_MOTION_DDOT>0</MEAN_MOTION_DDOT></tleParameters></data></segment></body></omm>
<omm id="CCSDS_OMM_VERS" version="2.0">
<header><CREATION_DATE/><ORIGINATOR/></header><body><segment><metadata><OBJECT_NAME>STARLINK-4482</OBJECT_NAME><OBJECT_ID>2022-101D</OBJECT_ID><CENTER_NAME>EARTH</CENTER_NAME><REF_FRAME>TEME</REF_FRAME><TIME_SYSTEM>UTC</TIME_SYSTEM><MEAN_ELEMENT_THEORY>SGP4</MEAN_ELEMENT_THEORY></metadata><data><meanElements><EPOCH>2022-08-29T14:00:01.000224</EPOCH><MEAN_MOTION>15.76608605</MEAN_MOTION><ECCENTRICITY>.0003232</ECCENTRICITY><INCLINATION>53.2176</INCLINATION><RA_OF_ASC_NODE>106.2967</RA_OF_ASC_NODE><ARG_OF_PERICENTER>356.4278</ARG_OF_PERICENTER><MEAN_ANOMALY>170.5609</MEAN_ANOMALY></meanElements><tleParameters><EPHEMERIS_TYPE>0</EPHEMERIS_TYPE><CLASSIFICATION_TYPE>U</CLASSIFICATION_TYPE><NORAD_CAT_ID>53530</NORAD_CAT_ID><ELEMENT_SET_NO>999</ELEMENT_SET_NO><REV_AT_EPOCH>130</REV_AT_EPOCH><BSTAR>-.82884E-2</BSTAR><MEAN_MOTION_DOT>-.1198878E-1</MEAN_MOTION_DOT><MEAN_MOTION_DDOT>0</MEAN_MOTION_DDOT></tleParameters></data></segment></body></omm>
<omm id="CCSDS_OMM_VERS" version="2.0">
<header><CREATION_DATE/><ORIGINATOR/></header><body><segment><metadata><OBJECT_NAME>STARLINK-4487</OBJECT_NAME><OBJECT_ID>2022-101E</OBJECT_ID><CENTER_NAME>EARTH</CENTER_NAME><REF_FRAME>TEME</REF_FRAME><TIME_SYSTEM>UTC</TIME_SYSTEM><MEAN_ELEMENT_THEORY>SGP4</MEAN_ELEMENT_THEORY></metadata><data><meanElements><EPOCH>2022-08-29T14:00:01.000224</EPOCH><MEAN_MOTION>15.76591290</MEAN_MOTION><ECCENTRICITY>.0003238</ECCENTRICITY><INCLINATION>53.2176</INCLINATION><RA_OF_ASC_NODE>106.2971</RA_OF_ASC_NODE><ARG_OF_PERICENTER>355.9049</ARG_OF_PERICENTER><MEAN_ANOMALY>170.5682</MEAN_ANOMALY></meanElements><tleParameters><EPHEMERIS_TYPE>0</EPHEMERIS_TYPE><CLASSIFICATION_TYPE>U</CLASSIFICATION_TYPE><NORAD_CAT_ID>53531</NORAD_CAT_ID><ELEMENT_SET_NO>999</ELEMENT_SET_NO><REV_AT_EPOCH>130</REV_AT_EPOCH><BSTAR>-.82936E-2</BSTAR><MEAN_MOTION_DOT>-.1198725E-1</MEAN_MOTION_DOT><MEAN_MOTION_DDOT>0</MEAN_MOTION_DDOT></tleParameters></data></segment></body></omm>
<omm id="CCSDS_OMM_VERS" version="2.0">
<header><CREATION_DATE/><ORIGINATOR/></header><body><segment><metadata><OBJECT_NAME>STARLINK-4483</OBJECT_NAME><OBJECT_ID>2022-101F</OBJECT_ID><CENTER_NAME>EARTH</CENTER_NAME><REF_FRAME>TEME</REF_FRAME><TIME_SYSTEM>UTC</TIME_SYSTEM><MEAN_ELEMENT_THEORY>SGP4</MEAN_ELEMENT_THEORY></metadata><data><meanElements><EPOCH>2022-08-29T14:00:01.000224</EPOCH><MEAN_MOTION>15.76624844</MEAN_MOTION><ECCENTRICITY>.0003229</ECCENTRICITY><INCLINATION>53.2176</INCLINATION><RA_OF_ASC_NODE>106.2956</RA_OF_ASC_NODE><ARG_OF_PERICENTER>357.3774</ARG_OF_PERICENTER><MEAN_ANOMALY>170.1304</MEAN_ANOMALY></meanElements><tleParameters><EPHEMERIS_TYPE>0</EPHEMERIS_TYPE><CLASSIFICATION_TYPE>U</CLASSIFICATION_TYPE><NORAD_CAT_ID>53532</NORAD_CAT_ID><ELEMENT_SET_NO>999</ELEMENT_SET_NO><REV_AT_EPOCH>130</REV_AT_EPOCH><BSTAR>-.82804E-2</BSTAR><MEAN_MOTION_DOT>-.1198621E-1</MEAN_MOTION_DOT><MEAN_MOTION_DDOT>0</MEAN_MOTION_DDOT></tleParameters></data></segment></body></omm>
<omm id="CCSDS_OMM_VERS" version="2.0">
<header><CREATION_DATE/><ORIGINATOR/></header><body><segment><metadata><OBJECT_NAME>STARLINK-4493</OBJECT_NAME><OBJECT_ID>2022-101G</OBJECT_ID><CENTER_NAME>EARTH</CENTER_NAME><REF_FRAME>TEME</REF_FRAME><TIME_SYSTEM>UTC</TIME_SYSTEM><MEAN_ELEMENT_THEORY>SGP4</MEAN_ELEMENT_THEORY></metadata><data><meanElements><EPOCH>2022-08-29T14:00:01.000224</EPOCH><MEAN_MOTION>15.76641401</MEAN_MOTION><ECCENTRICITY>.0003429</ECCENTRICITY><INCLINATION>53.2176</INCLINATION><RA_OF_ASC_NODE>106.2940</RA_OF_ASC_NODE><ARG_OF_PERICENTER>354.6146</ARG_OF_PERICENTER><MEAN_ANOMALY>173.4107</MEAN_ANOMALY></meanElements><tleParameters><EPHEMERIS_TYPE>0</EPHEMERIS_TYPE><CLASSIFICATION_TYPE>U</CLASSIFICATION_TYPE><NORAD_CAT_ID>53533</NORAD_CAT_ID><ELEMENT_SET_NO>999</ELEMENT_SET_NO><REV_AT_EPOCH>130</REV_AT_EPOCH><BSTAR>-.82737E-2</BSTAR><MEAN_MOTION_DOT>-.1198678E-1</MEAN_MOTION_DOT><MEAN_MOTION_DDOT>0</MEAN_MOTION_DDOT></tleParameters></data></segment></body></omm>
<omm id="CCSDS_OMM_VERS" version="2.0">
<header><CREATION_DATE/><ORIGINATOR/></header><body><segment><metadata><OBJECT_NAME>STARLINK-4488</OBJECT_NAME><OBJECT_ID>2022-101H</OBJECT_ID><CENTER_NAME>EARTH</CENTER_NAME><REF_FRAME>TEME</REF_FRAME><TIME_SYSTEM>UTC</TIME_SYSTEM><MEAN_ELEMENT_THEORY>SGP4</MEAN_ELEMENT_THEORY></metadata><data><meanElements><EPOCH>2022-08-29T14:00:01.000224</EPOCH><MEAN_MOTION>15.76708907</MEAN_MOTION><ECCENTRICITY>.0003307</ECCENTRICITY><INCLINATION>53.2176</INCLINATION><RA_OF_ASC_NODE>106.2901</RA_OF_ASC_NODE><ARG_OF_PERICENTER>3.5322</ARG_OF_PERICENTER><MEAN_ANOMALY>166.5487</MEAN_ANOMALY></meanElements><tleParameters><EPHEMERIS_TYPE>0</EPHEMERIS_TYPE><CLASSIFICATION_TYPE>U</CLASSIFICATION_TYPE><NORAD_CAT_ID>53534</NORAD_CAT_ID><ELEMENT_SET_NO>999</ELEMENT_SET_NO><REV_AT_EPOCH>130</REV_AT_EPOCH><BSTAR>-.82326E-2</BSTAR><MEAN_MOTION_DOT>-.1196515E-1</MEAN_MOTION_DOT><MEAN_MOTION_DDOT>0</MEAN_MOTION_DDOT></tleParameters></data></segment></body></omm>
<omm id="CCSDS_OMM_VERS" version="2.0">
<header><CREATION_DATE/><ORIGINATOR/></header><body><segment><metadata><OBJECT_NAME>STARLINK-4138</OBJECT_NAME><OBJECT_ID>2022-101J</OBJECT_ID><CENTER_NAME>EARTH</CENTER_NAME><REF_FRAME>TEME</REF_FRAME><TIME_SYSTEM>UTC</TIME_SYSTEM><MEAN_ELEMENT_THEORY>SGP4</MEAN_ELEMENT_THEORY></metadata><data><meanElements><EPOCH>2022-08-29T14:00:01.000224</EPOCH><MEAN_MOTION>15.76675966</MEAN_MOTION><ECCENTRICITY>.0003158</ECCENTRICITY><INCLINATION>53.2176</INCLINATION><RA_OF_ASC_NODE>106.2920</RA_OF_ASC_NODE><ARG_OF_PERICENTER>1.2547</ARG_OF_PERICENTER><MEAN_ANOMALY>167.7957</MEAN_ANOMALY></meanElements><tleParameters><EPHEMERIS_TYPE>0</EPHEMERIS_TYPE><CLASSIFICATION_TYPE>U</CLASSIFICATION_TYPE><NORAD_CAT_ID>53535</NORAD_CAT_ID><ELEMENT_SET_NO>999</ELEMENT_SET_NO><REV_AT_EPOCH>130</REV_AT_EPOCH><BSTAR>-.82542E-2</BSTAR><MEAN_MOTION_DOT>-.1197637E-1</MEAN_MOTION_DOT><MEAN_MOTION_DDOT>0</MEAN_MOTION_DDOT></tleParameters></data></segment></body></omm>

</ndm>
